CCSDS_OEM_VERS = 1.0
CREATION_DATE  = 2017-05-11T11:45:29
ORIGINATOR     = GMAT USER

META_START
OBJECT_NAME          = MOPSSat_alt_35785_km_RAAN_180_154
OBJECT_ID            = SatId
CENTER_NAME          = Earth
REF_FRAME            = EME2000
TIME_SYSTEM          = UTC
START_TIME           = 2017-01-01T00:00:00.000
USEABLE_START_TIME   = 2017-01-01T00:00:00.000
USEABLE_STOP_TIME    = 2017-01-02T00:00:00.000
STOP_TIME            = 2017-01-02T00:00:00.000
INTERPOLATION        = Lagrange
INTERPOLATION_DEGREE = 7 
META_STOP


                                                                                   

2017-01-01T07:47:30.000   5.182238615282295e+04  -2.495697520449638e+04   8.701147559011439e+02   1.541753899228212e+00   1.422644060520471e+00  -4.978447594020726e-02
2017-01-01T07:47:40.000   5.183779826622795e+04  -2.494274615260193e+04   8.696168197753643e+02   1.540668860764961e+00   1.423166289302649e+00  -4.980274820215667e-02
2017-01-01T07:47:50.000   5.185319952983050e+04  -2.492851188094392e+04   8.691187010151904e+02   1.539583935682528e+00   1.423688010452007e+00  -4.982100272189870e-02
2017-01-01T07:48:00.000   5.186858994488528e+04  -2.491427239448452e+04   8.686203997940485e+02   1.538499123918224e+00   1.424209224362454e+00  -4.983923951316919e-02
2017-01-01T07:48:10.000   5.188396951268555e+04  -2.490002769814578e+04   8.681219162839626e+02   1.537414425406506e+00   1.424729931428687e+00  -4.985745858973158e-02
2017-01-01T07:48:20.000   5.189933823420344e+04  -2.488577779714265e+04   8.676232506672083e+02   1.536329840104337e+00   1.425250132034014e+00  -4.987565996495087e-02
2017-01-01T07:48:30.000   5.191469611044956e+04  -2.487152269665005e+04   8.671244031246576e+02   1.535245367965830e+00   1.425769826562535e+00  -4.989384365221981e-02
2017-01-01T07:48:40.000   5.193004314238026e+04  -2.485726240188871e+04   8.666253738387894e+02   1.534161008948787e+00   1.426289015395997e+00  -4.991200966484886e-02
2017-01-01T07:48:50.000   5.194537933114375e+04  -2.484299691789809e+04   8.661261629857379e+02   1.533076762997383e+00   1.426807698922136e+00  -4.993015801635812e-02
2017-01-01T07:49:00.000   5.196070467787678e+04  -2.482872624972375e+04   8.656267707418514e+02   1.531992630056454e+00   1.427325877527787e+00  -4.994828872023612e-02
2017-01-01T07:49:10.000   5.197601918375139e+04  -2.481445040237407e+04   8.651271972821784e+02   1.530908610068213e+00   1.427843551600474e+00  -4.996640178999554e-02
2017-01-01T07:49:20.000   5.199132284995639e+04  -2.480016938083684e+04   8.646274427810461e+02   1.529824702973523e+00   1.428360721527763e+00  -4.998449723915061e-02
2017-01-01T07:49:30.000   5.200661567768913e+04  -2.478588319008742e+04   8.641275074123479e+02   1.528740908712508e+00   1.428877387697002e+00  -5.000257508120803e-02
2017-01-01T07:49:40.000   5.202189766813730e+04  -2.477159183510590e+04   8.636273913501440e+02   1.527657227225840e+00   1.429393550494707e+00  -5.002063532964528e-02
2017-01-01T07:49:50.000   5.203716882246975e+04  -2.475729532088481e+04   8.631270947689281e+02   1.526573658455365e+00   1.429909210306238e+00  -5.003867799789962e-02
2017-01-01T07:50:00.000   5.205242914181929e+04  -2.474299365244626e+04   8.626266178442323e+02   1.525490202345357e+00   1.430424367515234e+00  -5.005670309934796e-02
2017-01-01T07:50:10.000   5.206767862732869e+04  -2.472868683479844e+04   8.621259607511000e+02   1.524406858839240e+00   1.430939022505163e+00  -5.007471064736137e-02
2017-01-01T07:50:20.000   5.208291727995079e+04  -2.471437487312453e+04   8.616251236707004e+02   1.523323627893851e+00   1.431453175652589e+00  -5.009270065506931e-02
2017-01-01T07:50:30.000   5.209814510069106e+04  -2.470005777255391e+04   8.611241067823189e+02   1.522240509462147e+00   1.431966827335340e+00  -5.011067313564561e-02
2017-01-01T07:50:40.000   5.211336209051718e+04  -2.468573553824710e+04   8.606229102663324e+02   1.521157503499641e+00   1.432479977929469e+00  -5.012862810220200e-02
2017-01-01T07:50:50.000   5.212856825070927e+04  -2.467140817506647e+04   8.601215342926832e+02   1.520074609939489e+00   1.432992627821067e+00  -5.014656556820134e-02
2017-01-01T07:51:00.000   5.214376358251048e+04  -2.465707568790471e+04   8.596199790323765e+02   1.518991828717339e+00   1.433504777394468e+00  -5.016448554704529e-02
2017-01-01T07:51:10.000   5.215894808720637e+04  -2.464273808161053e+04   8.591182446548784e+02   1.517909159765697e+00   1.434016427034941e+00  -5.018238805216812e-02
2017-01-01T07:51:20.000   5.217412176592684e+04  -2.462839536117360e+04   8.586163313345886e+02   1.516826603027970e+00   1.434527577121991e+00  -5.020027309680241e-02
2017-01-01T07:51:30.000   5.218928461979351e+04  -2.461404753158748e+04   8.581142392460420e+02   1.515744158448036e+00   1.435038228034349e+00  -5.021814069415382e-02
2017-01-01T07:51:40.000   5.220443664991923e+04  -2.459969459784925e+04   8.576119685639005e+02   1.514661825970250e+00   1.435548380149945e+00  -5.023599085739999e-02
2017-01-01T07:51:50.000   5.221957785726373e+04  -2.458533656509832e+04   8.571095194678024e+02   1.513579605549842e+00   1.436058033841074e+00  -5.025382359952133e-02
2017-01-01T07:52:00.000   5.223470824282870e+04  -2.457097343842981e+04   8.566068921358412e+02   1.512497497138904e+00   1.436567189480933e+00  -5.027163893353004e-02
2017-01-01T07:52:10.000   5.224982780758050e+04  -2.455660522296799e+04   8.561040867471282e+02   1.511415500691920e+00   1.437075847441044e+00  -5.028943687237961e-02
2017-01-01T07:52:20.000   5.226493655279175e+04  -2.454223192354208e+04   8.556011034704510e+02   1.510333616141340e+00   1.437584008102730e+00  -5.030721742936652e-02
2017-01-01T07:52:30.000   5.228003447969984e+04  -2.452785354501040e+04   8.550979424756155e+02   1.509251843422004e+00   1.438091671845632e+00  -5.032498061772853e-02
2017-01-01T07:52:40.000   5.229512158958419e+04  -2.451347009218718e+04   8.545946039308858e+02   1.508170182465617e+00   1.438598839050318e+00  -5.034272645073568e-02
2017-01-01T07:52:50.000   5.231019788356953e+04  -2.449908157002814e+04   8.540910880094781e+02   1.507088633214775e+00   1.439105510091641e+00  -5.036045494145825e-02
2017-01-01T07:53:00.000   5.232526336277239e+04  -2.448468798349298e+04   8.535873948847468e+02   1.506007195612548e+00   1.439611685343689e+00  -5.037816610293982e-02
2017-01-01T07:53:10.000   5.234031802830058e+04  -2.447028933754498e+04   8.530835247301737e+02   1.504925869602485e+00   1.440117365179763e+00  -5.039585994819631e-02
2017-01-01T07:53:20.000   5.235536188110983e+04  -2.445588563729023e+04   8.525794777242378e+02   1.503844655139000e+00   1.440622549967573e+00  -5.041353649004817e-02
2017-01-01T07:53:30.000   5.237039492219739e+04  -2.444147688779048e+04   8.520752540438674e+02   1.502763552173382e+00   1.441127240075732e+00  -5.043119574134747e-02
2017-01-01T07:53:40.000   5.238541715252412e+04  -2.442706309413818e+04   8.515708538670648e+02   1.501682560659409e+00   1.441631435871142e+00  -5.044883771488642e-02
2017-01-01T07:53:50.000   5.240042857335925e+04  -2.441264426112576e+04   8.510662773613354e+02   1.500601680528547e+00   1.442135137730564e+00  -5.046646242380225e-02
2017-01-01T07:54:00.000   5.241542918593466e+04  -2.439822039357717e+04   8.505615246952849e+02   1.499520911714823e+00   1.442638346029016e+00  -5.048406988117126e-02
2017-01-01T07:54:10.000   5.243041899153418e+04  -2.438379149626233e+04   8.500565960356323e+02   1.498440254148395e+00   1.443141061142774e+00  -5.050166010011375e-02
2017-01-01T07:54:20.000   5.244539799125315e+04  -2.436935757412694e+04   8.495514915552476e+02   1.497359707772827e+00   1.443643283441290e+00  -5.051923309351136e-02
2017-01-01T07:54:30.000   5.246036618619698e+04  -2.435491863210304e+04   8.490462114265204e+02   1.496279272530837e+00   1.444145013293869e+00  -5.053678887424059e-02
2017-01-01T07:54:40.000   5.247532357743682e+04  -2.434047467515111e+04   8.485407558228399e+02   1.495198948367477e+00   1.444646251068181e+00  -5.055432745512078e-02
2017-01-01T07:54:50.000   5.249027016602242e+04  -2.432602570824907e+04   8.480351249182036e+02   1.494118735229260e+00   1.445146997130699e+00  -5.057184884892937e-02
2017-01-01T07:55:00.000   5.250520595299612e+04  -2.431157173637754e+04   8.475293188867046e+02   1.493038633063096e+00   1.445647251847164e+00  -5.058935306841828e-02
2017-01-01T07:55:10.000   5.252013093939865e+04  -2.429711276451464e+04   8.470233379023495e+02   1.491958641815897e+00   1.446147015582774e+00  -5.060684012632056e-02
2017-01-01T07:55:20.000   5.253504512632253e+04  -2.428264879758452e+04   8.465171821372553e+02   1.490878761430716e+00   1.446646288703991e+00  -5.062431003541328e-02
2017-01-01T07:55:30.000   5.254994851487628e+04  -2.426817984049155e+04   8.460108517628499e+02   1.489798991849321e+00   1.447145071577322e+00  -5.064176280847536e-02
2017-01-01T07:55:40.000   5.256484110618445e+04  -2.425370589812046e+04   8.455043469498709e+02   1.488719333012199e+00   1.447643364569331e+00  -5.065919845828766e-02
2017-01-01T07:55:50.000   5.257972290142263e+04  -2.423922697530155e+04   8.449976678671545e+02   1.487639784855985e+00   1.448141168047806e+00  -5.067661699767387e-02
2017-01-01T07:56:00.000   5.259459390176457e+04  -2.422474307686268e+04   8.444908146834508e+02   1.486560347317320e+00   1.448638482379992e+00  -5.069401843943881e-02
2017-01-01T07:56:10.000   5.260945410837695e+04  -2.421025420763449e+04   8.439837875676080e+02   1.485481020333240e+00   1.449135307932416e+00  -5.071140279636213e-02
2017-01-01T07:56:20.000   5.262430352240378e+04  -2.419576037246455e+04   8.434765866890662e+02   1.484401803842257e+00   1.449631645070362e+00  -5.072877008118012e-02
2017-01-01T07:56:30.000   5.263914214495547e+04  -2.418126157622928e+04   8.429692122182777e+02   1.483322697785215e+00   1.450127494157514e+00  -5.074612030657301e-02
